[{"OBJECT_NAME":"GEISAT PRECURSOR","OBJECT_ID":"2023-084C","EPOCH":"2026-03-09T22:20:25.833120","MEAN_MOTION":15.33054389,"ECCENTRICITY":0.00051675,"INCLINATION":97.6055,"RA_OF_ASC_NODE":206.8263,"ARG_OF_PERICENTER":345.1842,"MEAN_ANOMALY":14.9247,"EPHEMERIS_TYPE":0,"CLASSIFICATION_TYPE":"U","NORAD_CAT_ID":56934,"ELEMENT_SET_NO":999,"REV_AT_EPOCH":15231,"BSTAR":0.00033857167,"MEAN_MOTION_DOT":0.00010736,"MEAN_MOTION_DDOT":0},{"OBJECT_NAME":"STARLINK-35661","OBJECT_ID":"2025-257H","EPOCH":"2026-03-09T17:33:34.030368","MEAN_MOTION":15.30203999,"ECCENTRICITY":9.818e-5,"INCLINATION":53.1605,"RA_OF_ASC_NODE":216.5656,"ARG_OF_PERICENTER":88.2084,"MEAN_ANOMALY":271.9029,"EPHEMERIS_TYPE":0,"CLASSIFICATION_TYPE":"U","NORAD_CAT_ID":66387,"ELEMENT_SET_NO":999,"REV_AT_EPOCH":1974,"BSTAR":0.00099652627,"MEAN_MOTION_DOT":0.00029275,"MEAN_MOTION_DDOT":0}]
